ONEWEB-0029             
1 45445U 20020X   24180.45655277 -.00000232  00000+0 -69164-3 0  9999
2 45445  87.8964 164.0918 0002254  88.7545 271.3842 13.11418622208450
ONEWEB-0068             
1 45446U 20020Y   24180.88974848 -.00000141  00000+0 -43367-3 0  9991
2 45446  87.8962 163.9915 0002228  86.4228 273.7155 13.11414309208460
ONEWEB-0046             
1 45447U 20020Z   24180.88720275 -.00000065  00000+0 -21779-3 0  9993
2 45447  87.8961 164.0042 0002095  95.2546 264.8821 13.11415702208476
ONEWEB-0063             
1 45448U 20020AA  24180.45824141 -.00000200  00000+0 -59930-3 0  9995
2 45448  87.8964 164.0899 0001896  94.6319 265.5026 13.11418753208495
ONEWEB-0019             
1 45449U 20020AB  24180.89058537 -.00000185  00000+0 -55827-3 0  9995
2 45449  87.8964 164.0078 0001879  83.7703 276.3639 13.11412920208403
ONEWEB-0094             
1 45450U 20020AC  24180.39393391  .00000085  00000+0  18597-3 0  9992
2 45450  87.9171 148.9380 0002231  86.1271 274.0116 13.17645565211658
ONEWEB-0087             
1 45451U 20020AD  24180.46828325  .00000197  00000+0  52031-3 0  9996
2 45451  87.8960 164.0601 0002330  90.7962 269.3433 13.11419275208383
ONEWEB-0082             
1 45452U 20020AE  24180.38872793  .00000105  00000+0  26076-3 0  9995
2 45452  87.8966 164.0794 0002059  84.3533 275.7830 13.11420223208460
ONEWEB-0050             
1 45453U 20020AF  24180.61515403  .00003825  00000+0  39602-3 0  9995
2 45453  88.0026  25.2487 0005092  64.9555 295.2201 14.89828811233329
ONEWEB-0034             
1 45454U 20020AG  24180.48707479  .00000594  00000+0  16411-2 0  9999
2 45454  87.8964 164.0792 0002115  85.7496 274.3873 13.11415232208392
ONEWEB-0060             
1 45455U 20020AH  24180.45328909 -.00000352  00000+0 -10298-2 0  9995
2 45455  87.8967 164.1017 0001896  92.1408 267.9937 13.11414232208340
ONEWEB-0086             
1 45456U 20020AJ  24180.89398169 -.00000325  00000+0 -95216-3 0  9993
2 45456  87.8963 163.9997 0002511  88.6961 271.4455 13.11415447208467
ONEWEB-0088             
1 45457U 20020AK  24180.87195765  .00000488  00000+0  13405-2 0  9996
2 45457  87.8957 163.9688 0002146  88.1635 271.9739 13.11414565208409
ONEWEB-0102             
1 47258U 20100A   24180.82819324 -.00000339  00000+0 -97735-3 0  9991
2 47258  87.8947 133.7271 0001951  78.2108 281.9239 13.12441887170503
ONEWEB-0109             
1 47259U 20100B   24180.83632006 -.00000120  00000+0 -36787-3 0  9991
2 47259  87.8950 133.6901 0001986  78.1611 281.9740 13.12444354170333
ONEWEB-0110             
1 47260U 20100C   24180.40485393  .00000513  00000+0  13907-2 0  9993
2 47260  87.8942 133.7811 0002112  77.1360 283.0004 13.12443335170445
ONEWEB-0111             
1 47261U 20100D   24180.89308756 -.00000373  00000+0 -10736-2 0  9997
2 47261  87.8949 133.6804 0002029  79.5037 280.6320 13.12442871170345
ONEWEB-0114             
1 47262U 20100E   24180.39022150  .00000166  00000+0  42687-3 0  9993
2 47262  87.8942 133.7955 0001599  73.5286 286.6018 13.12450159170234
ONEWEB-0117             
1 47263U 20100F   24180.83956357 -.00000002  00000+0 -41756-4 0  9996
2 47263  87.8948 133.6820 0002108  81.4318 278.7049 13.12443157170306
ONEWEB-0118             
1 47264U 20100G   24180.56704001  .00000256  00000+0  67661-3 0  9995
2 47264  87.8946 133.7399 0001636  87.9724 272.1591 13.12440434170466
ONEWEB-0119             
1 47265U 20100H   24180.82332854 -.00000373  00000+0 -10734-2 0  9998
2 47265  87.8949 133.7272 0002099  80.0116 280.1250 13.12443902170478
ONEWEB-0120             
1 47266U 20100J   24180.38873869  .00000255  00000+0  67262-3 0  9992
2 47266  87.8949 133.8033 0001893  80.6200 279.5142 13.12446322170444
ONEWEB-0121             
1 47267U 20100K   24180.83466807 -.00000216  00000+0 -63625-3 0  9991
2 47267  87.8945 133.7052 0002214  79.6097 280.5281 13.12441810170411
ONEWEB-0122             
1 47268U 20100L   24180.82966361 -.00000508  00000+0 -14463-2 0  9990
2 47268  87.8942 133.7106 0002098  77.2621 282.8742 13.12442154170325
ONEWEB-0123             
1 47269U 20100M   24180.82493659 -.00000379  00000+0 -10890-2 0  9992
2 47269  87.8949 133.7258 0002003  82.4297 277.7059 13.12441099170460
ONEWEB-0124             
1 47270U 20100N   24180.58488029 -.00000355  00000+0 -10211-2 0  9993
2 47270  87.8948 133.7701 0002341  80.8159 279.3235 13.12440848170317
ONEWEB-0125             
1 47271U 20100P   24180.86714526  .00000368  00000+0  98835-3 0  9990
2 47271  87.8950 133.6737 0002108  91.0985 269.0385 13.12441361170415
ONEWEB-0126             
1 47272U 20100Q   24180.58731798 -.00000325  00000+0 -93850-3 0  9997
2 47272  87.8944 133.7346 0001943  79.1813 280.9535 13.12443932170447
ONEWEB-0127             
1 47273U 20100R   24180.39672653  .00000499  00000+0  13510-2 0  9995
2 47273  87.8949 133.8012 0001979  79.5355 280.5997 13.12444284170447
ONEWEB-0128             
1 47274U 20100S   24180.87685748  .00000109  00000+0  26864-3 0  9993
2 47274  87.8955 133.7104 0002285  75.1745 284.9636 13.12440271170521
ONEWEB-0129             
1 47275U 20100T   24180.39836392  .00000512  00000+0  13886-2 0  9991
2 47275  87.8948 133.7712 0000921  26.1969 333.9206 13.12444850170398
ONEWEB-0130             
1 47276U 20100U   24180.88334431 -.00000151  00000+0 -45493-3 0  9994
2 47276  87.8945 133.6825 0002054  76.5524 283.5833 13.12440375170423
ONEWEB-0131             
1 47277U 20100V   24180.88010519  .00000088  00000+0  20986-3 0  9990
2 47277  87.8950 133.6983 0002172  79.3066 280.8307 13.12439971170468
ONEWEB-0132             
1 47278U 20100W   24180.83305735 -.00000226  00000+0 -66247-3 0  9999
2 47278  87.8950 133.7097 0002321  84.4791 275.6602 13.12444340170358
ONEWEB-0133             
1 47279U 20100X   24180.39186330  .00000434  00000+0  11709-2 0  9990
2 47279  87.8943 133.7951 0002187  79.5123 280.6252 13.12444527170459
ONEWEB-0134             
1 47280U 20100Y   24180.89469853 -.00000395  00000+0 -11327-2 0  9995
2 47280  87.8944 133.6828 0002123  73.6387 286.4975 13.12441209170495
ONEWEB-0135             
1 47281U 20100Z   24180.86552495  .00004882  00000+0  13532-1 0  9990
2 47281  87.8948 133.7059 0002106  70.7132 289.4224 13.12420167170517
ONEWEB-0136             
1 47282U 20100AA  24180.88496214 -.00000156  00000+0 -46766-3 0  9998
2 47282  87.8946 133.6694 0002022  66.8292 293.3050 13.12439927170447
ONEWEB-0137             
1 47283U 20100AB  24180.38536721  .00000221  00000+0  57853-3 0  9992
2 47283  87.8942 133.7927 0001901  81.6545 278.4799 13.12445129170282
ONEWEB-0138             
1 47284U 20100AC  24180.59298493 -.00000402  00000+0 -11532-2 0  9993
2 47284  87.8943 133.7635 0002008  78.4911 281.6443 13.12444885170392
ONEWEB-0139             
1 47285U 20100AD  24180.91667824 -.00019486  00000+0 -54305-1 0  9994
2 47285  87.8946 133.6691 0002109  82.2000 182.2382 13.12455646170509
ONEWEB-0140             
1 47286U 20100AE  24180.89144419 -.00000355  00000+0 -10219-2 0  9994
2 47286  87.8945 133.6802 0002076  76.8149 283.3211 13.12440391170469
ONEWEB-0141             
1 47287U 20100AF  24180.40307706  .00000482  00000+0  13047-2 0  9993
2 47287  87.8944 133.7888 0001991  85.7706 274.3650 13.12445045170397
ONEWEB-0142             
1 47288U 20100AG  24180.82899414 -.00000511  00000+0 -14561-2 0  9999
2 47288  87.8945 133.6849 0001801  80.4074 279.7258 13.12442750170444
ONEWEB-0143             
1 47289U 20100AH  24180.40160031  .00000508  00000+0  13764-2 0  9998
2 47289  87.8946 133.7907 0002103  81.5248 278.6118 13.12444575170364
ONEWEB-0144             
1 47290U 20100AJ  24180.83143847 -.00000342  00000+0 -98516-3 0  9990
2 47290  87.8945 133.6887 0001763  75.2098 284.9226 13.12443005170340
ONEWEB-0145             
1 47291U 20100AK  24180.87847533  .00000084  00000+0  19912-3 0  9992
2 47291  87.8945 133.7036 0001972  79.7537 280.3814 13.12440430170541
ONEWEB-0146             
1 47292U 20100AL  24180.87523566  .00000119  00000+0  29437-3 0  9992
2 47292  87.8947 133.6879 0002468  86.6319 273.5092 13.12442123170457
ONEWEB-0147             
1 47293U 20100AM  24180.84116103  .00000007  00000+0 -16468-4 0  9993
2 47293  87.8943 133.6879 0002114  72.0714 288.0644 13.12444929170348
ONEWEB-0115             
1 48042U 21025A   24180.82068148 -.00000234  00000+0 -67560-3 0  9997
2 48042  87.8927 103.2225 0002184  79.0853 281.0522 13.13472071159300
ONEWEB-0152             
1 48043U 21025B   24180.83338940  .00000039  00000+0  70863-4 0  9991
2 48043  87.8930 103.2181 0002101  78.0128 282.1236 13.13471635159263
ONEWEB-0153             
1 48044U 21025C   24180.50644264 -.00000278  00000+0 -79727-3 0  9999
2 48044  87.8933 103.2709 0001903  76.7133 283.4208 13.13472501159203
ONEWEB-0154             
1 48045U 21025D   24180.50326903 -.00000254  00000+0 -73172-3 0  9999
2 48045  87.8930 103.2828 0002002  75.7085 284.4266 13.13472588159164
ONEWEB-0116             
1 48046U 21025E   24180.54454427  .00000368  00000+0  97372-3 0  9999
2 48046  87.8934 103.2441 0002192  79.7250 280.4126 13.13471797159317
ONEWEB-0150             
1 48047U 21025F   24180.51914086 -.00000156  00000+0 -46346-3 0  9991
2 48047  87.8927 103.2673 0001887  79.4092 280.7249 13.13468403159205
ONEWEB-0107             
1 48048U 21025G   24180.82543725 -.00000163  00000+0 -48190-3 0  9991
2 48048  87.8929 103.2042 0001697  78.7926 281.3394 13.13471697159224
ONEWEB-0101             
1 48049U 21025H   24180.48424033  .00000224  00000+0  57743-3 0  9994
2 48049  87.8935 103.2892 0001992  74.3655 285.7694 13.13470074159155
ONEWEB-0113             
1 48050U 21025J   24180.84290240  .00000241  00000+0  62520-3 0  9995
2 48050  87.8933 103.1994 0002178  78.8666 281.2708 13.13471685159285
ONEWEB-0112             
1 48051U 21025K   24180.83019956 -.00000029  00000+0 -11348-3 0  9996
2 48051  87.8928 103.2009 0001977  80.3915 279.7437 13.13472302159300
